*******************************************************************************
JPL/HORIZONS                21 Lutetia (A852 VA)           2023-Sep-04 11:03:56
Rec #:      21 (+COV) Soln.date: 2023-Aug-22_16:24:20   # obs: 5700 (1866-2023)
 
IAU76/J2000 helio. ecliptic osc. elements (au, days, deg., period=Julian yrs):
 
  EPOCH=  2457346.5 ! 2015-Nov-20.00 (TDB)         Residual RMS= .33326
   EC= .1646449704728928   QR= 2.03398499661396    TP= 2457273.9153274689
   OM= 80.88274414021345   W=  250.1056248741372   IN= 3.06358345096359
   A= 2.434874903147941    MA= 18.82929309768064   ADIST= 2.835764809681921
   PER= 3.79947            N= .259411422           ANGMOM= .026475983
   DAN= 2.50947            DDN= 2.24319            L= 330.9621344
   B= -2.8805944           MOID= 1.02488995        TP= 2015-Sep-08.4153274689
 
Asteroid physical parameters (km, seconds, rotational period in hours):
   GM= n.a.                RAD= 47.88              ROTPER= 8.1655
   H= 7.52                 G= .110                 B-V= .686
                           ALBEDO= .2212           STYP= Xk

ASTEROID comments: 
1: soln ref.= JPL#129, OCC=0
2: source=ORB
*******************************************************************************


*******************************************************************************
Ephemeris / API_USER Mon Sep  4 11:03:56 2023 Pasadena, USA      / Horizons
*******************************************************************************
Target body name: 21 Lutetia (A852 VA)            {source: JPL#129}
Center body name: Solar System Barycenter (0)     {source: DE441}
Center-site name: BODY CENTER
*******************************************************************************
Start time      : A.D. 2023-Aug-12 00:00:00.0000 TDB
Stop  time      : A.D. 2023-Aug-13 00:00:00.0000 TDB
Step-size       : 2880 minutes
*******************************************************************************
Center geodetic : 0.0, 0.0, 0.0                   {E-lon(deg),Lat(deg),Alt(km)}
Center cylindric: 0.0, 0.0, 0.0                   {E-lon(deg),Dxy(km),Dz(km)}
Center radii    : (undefined)
Small perturbers: Yes                             {source: SB441-N16}
Output units    : KM-S
Calendar mode   : Mixed Julian/Gregorian
Output type     : GEOMETRIC cartesian states
Output format   : 2 (position and velocity)
Reference frame : Ecliptic of J2000.0
*******************************************************************************
Initial IAU76/J2000 heliocentric ecliptic osculating elements (au, days, deg.):
  EPOCH=  2457346.5 ! 2015-Nov-20.00 (TDB)         Residual RMS= .33326        
   EC= .1646449704728928   QR= 2.03398499661396    TP= 2457273.9153274689      
   OM= 80.88274414021345   W=  250.1056248741372   IN= 3.06358345096359        
  Equivalent ICRF heliocentric cartesian coordinates (au, au/d):
   X= 2.059190572550437E+00  Y=-4.387021018486470E-02  Z=-1.385051188997791E-01
  VX= 1.412081623021620E-03 VY= 1.170624458466403E-02 VZ= 5.112018413312354E-03
Asteroid physical parameters (km, seconds, rotational period in hours):        
   GM= n.a.                RAD= 47.88              ROTPER= 8.1655              
   H= 7.52                 G= .110                 B-V= .686                   
                           ALBEDO= .2212           STYP= Xk                    
*******************************************************************************
JDTDB
   X     Y     Z
   VX    VY    VZ
*******************************************************************************
$$SOE
2460168.500000000 = A.D. 2023-Aug-12 00:00:00.0000 TDB 
 X = 3.060026562474734E+08 Y = 7.227858204346199E+07 Z =-1.558812839771553E+07
 VX=-2.890397322952779E+00 VY= 2.159346546139674E+01 VZ= 3.370413082063903E-01
$$EOE
*******************************************************************************
 
TIME

  Barycentric Dynamical Time ("TDB" or T_eph) output was requested. This
continuous coordinate time is equivalent to the relativistic proper time
of a clock at rest in a reference frame co-moving with the solar system
barycenter but outside the system's gravity well. It is the independent
variable in the solar system relativistic equations of motion.

  TDB runs at a uniform rate of one SI second per second and is independent
of irregularities in Earth's rotation.
 
CALENDAR SYSTEM

  Mixed calendar mode was active such that calendar dates after AD 1582-Oct-15
(if any) are in the modern Gregorian system. Dates prior to 1582-Oct-5 (if any)
are in the Julian calendar system, which is automatically extended for dates
prior to its adoption on 45-Jan-1 BC.  The Julian calendar is useful for
matching historical dates. The Gregorian calendar more accurately corresponds
to the Earth's orbital motion and seasons. A "Gregorian-only" calendar mode is
available if such physical events are the primary interest.

REFERENCE FRAME AND COORDINATES

  Ecliptic at the standard reference epoch

    Reference epoch: J2000.0
    X-Y plane: adopted Earth orbital plane at the reference epoch
               Note: IAU76 obliquity of 84381.448 arcseconds wrt ICRF X-Y plane
    X-axis   : ICRF
    Z-axis   : perpendicular to the X-Y plane in the directional (+ or -) sense
               of Earth's north pole at the reference epoch.

  Symbol meaning:

    JDTDB    Julian Day Number, Barycentric Dynamical Time
      X      X-component of position vector (km)
      Y      Y-component of position vector (km)
      Z      Z-component of position vector (km)
      VX     X-component of velocity vector (km/sec)                           
      VY     Y-component of velocity vector (km/sec)                           
      VZ     Z-component of velocity vector (km/sec)                           

ABERRATIONS AND CORRECTIONS

 Geometric state vectors have NO corrections or aberrations applied.

Computations by ...

    Solar System Dynamics Group, Horizons On-Line Ephemeris System
    4800 Oak Grove Drive, Jet Propulsion Laboratory
    Pasadena, CA  91109   USA

    General site: https://ssd.jpl.nasa.gov/
    Mailing list: https://ssd.jpl.nasa.gov/email_list.html
    System news : https://ssd.jpl.nasa.gov/horizons/news.html
    User Guide  : https://ssd.jpl.nasa.gov/horizons/manual.html
    Connect     : browser        https://ssd.jpl.nasa.gov/horizons/app.html#/x
                  API            https://ssd-api.jpl.nasa.gov/doc/horizons.html
                  command-line   telnet ssd.jpl.nasa.gov 6775
                  e-mail/batch   https://ssd.jpl.nasa.gov/ftp/ssd/hrzn_batch.txt
                  scripts        https://ssd.jpl.nasa.gov/ftp/ssd/SCRIPTS
    Author      : Jon.D.Giorgini@jpl.nasa.gov
*******************************************************************************
